BEIDOU 3 (C01)          
1 36287U 10001A   22243.58325675 -.00000278  00000+0  00000+0 0  9998
2 36287   1.6380  46.0351 0001863 355.0870 289.0378  1.00269665 46261
BEIDOU 5 (C06)          
1 36828U 10036A   22243.54199523 -.00000122  00000+0  00000+0 0  9992
2 36828  54.2008 175.5431 0030550 189.3597 277.9098  1.00277354 44334
BEIDOU 6 (C04)          
1 37210U 10057A   22243.59520500 -.00000108  00000+0  00000+0 0  9993
2 37210   0.9863  54.9409 0006265 137.7691 161.4267  1.00273450 43382
BEIDOU 7 (C07)          
1 37256U 10068A   22243.52908103 -.00000173  00000+0  00000+0 0  9999
2 37256  50.0773 288.7484 0024002 202.1985 147.0037  1.00283730 42892
BEIDOU 8 (C08)          
1 37384U 11013A   22243.26147898 -.00000156  00000+0  00000+0 0  9990
2 37384  60.4011  53.5170 0023515 177.1213 310.4671  1.00287673 41773
BEIDOU 9 (C09)          
1 37763U 11038A   22243.31741991 -.00000074  00000+0  00000+0 0  9997
2 37763  54.4831 178.0434 0099177 228.2624 142.5867  1.00265429 40757
BEIDOU 10 (C10)         
1 37948U 11073A   22242.73676682 -.00000126  00000+0  00000+0 0  9998
2 37948  50.1962 288.4042 0086399 219.1369 192.6952  1.00277602 39506
BEIDOU 11 (C05)         
1 38091U 12008A   22243.64801532  .00000060  00000+0  00000+0 0  9998
2 38091   1.7266  69.4029 0011759 342.9814 219.4329  1.00269744 38586
BEIDOU 12 (C11)         
1 38250U 12018A   22243.24466111 -.00000078  00000+0  00000+0 0  9992
2 38250  56.6740 351.0906 0022317 249.7361  65.1469  1.86234407 70473
BEIDOU 13 (C12)         
1 38251U 12018B   22243.17970855 -.00000078  00000+0  00000+0 0  9990
2 38251  56.5892 350.4127 0012915 248.7833  66.7256  1.86234159 70470
BEIDOU 15 (C14)         
1 38775U 12050B   22243.23266701  .00000015  00000+0  00000+0 0  9992
2 38775  55.4418 109.1679 0012954 331.1994 215.8053  1.86231486 67852
BEIDOU 16 (C02)         
1 38953U 12059A   22238.08869134 -.00000178  00000+0  00000+0 0  9996
2 38953   1.7412  87.3599 0011124 292.1368  70.7794  1.00265323 36102
BEIDOU 17 (C31)         
1 40549U 15019A   22243.64517836 -.00000163  00000+0  00000+0 0  9990
2 40549  51.7555 311.8844 0038344 196.0899 159.7285  1.00281387 27180
BEIDOU 18 (C57)         
1 40748U 15037A   22243.39109823 -.00000079  00000+0  00000+0 0  9992
2 40748  55.8388 349.2260 0002800  63.5541 303.0235  1.86233400 48311
BEIDOU 19 (C58)         
1 40749U 15037B   22243.18644800 -.00000079  00000+0  00000+0 0  9999
2 40749  55.8439 349.2229 0002043 321.3457  42.2381  1.86232480 48304
BEIDOU 20 (C18)         
1 40938U 15053A   22242.92011795 -.00000103  00000+0  00000+0 0  9997
2 40938  51.3861 275.0163 0046231 199.7085 292.2137  1.00275952 25452
BEIDOU IGSO-6 (C13)     
1 41434U 16021A   22243.43098936 -.00000131  00000+0  00000+0 0  9995
2 41434  58.2102  52.0562 0044570 214.9517 323.4054  1.00268469 23580
BEIDOU-2 G7 (C03)       
1 41586U 16037A   22243.52988196 -.00000351  00000+0  00000+0 0  9990
2 41586   1.5351  67.4454 0007849 359.3266 214.0686  1.00265980 22892
BEIDOU-3 M1 (C19)       
1 43001U 17069A   22243.56784126  .00000014  00000+0  00000+0 0  9996
2 43001  55.5946 109.1674 0008958 298.0712 269.9890  1.86231821 32797
BEIDOU-3 M2 (C20)       
1 43002U 17069B   22243.57395322  .00000014  00000+0  00000+0 0  9994
2 43002  55.5938 109.2028 0007015 326.5758 288.4962  1.86231547 32783
BEIDOU-3 M3 (C27)       
1 43107U 18003A   22243.49061333 -.00000080  00000+0  00000+0 0  9996
2 43107  55.2906 350.1077 0004404  71.9385 293.4963  1.86232664 31550
BEIDOU-3 M4 (C28)       
1 43108U 18003B   22243.42603505 -.00000080  00000+0  00000+0 0  9993
2 43108  55.2848 350.0975 0002761 227.6520 137.9536  1.86230957 31558
BEIDOU-3 M5 (C21)       
1 43207U 18018A   22242.41667712  .00000020  00000+0  00000+0 0  9990
2 43207  55.5554 109.3169 0005328 358.2974 112.5141  1.86231882 30919
BEIDOU-3 M6 (C22)       
1 43208U 18018B   22242.31821847  .00000020  00000+0  00000+0 0  9991
2 43208  55.5526 109.3257 0007066 312.8288  47.2104  1.86231601 30914
BEIDOU-3 M7 (C29)       
1 43245U 18029A   22243.03556968 -.00000079  00000+0  00000+0 0  9998
2 43245  55.2010 347.8862 0001008 147.5858 183.2434  1.86232720 30074
BEIDOU-3 M8 (C30)       
1 43246U 18029B   22243.48459220 -.00000079  00000+0  10000-3 0  9996
2 43246  55.1977 347.8999 0002910   7.9303 310.5423  1.86232969 30072
BEIDOU IGSO-7 (C16)     
1 43539U 18057A   22242.90547003 -.00000130  00000+0  00000+0 0  9998
2 43539  55.0910 175.0723 0052625 228.7128  14.6695  1.00288026 15252
BEIDOU-3 M9 (C23)       
1 43581U 18062A   22243.23452392  .00000071  00000+0  00000+0 0  9997
2 43581  54.2584 229.5236 0006000 272.7595  89.2668  1.86231905 27826
BEIDOU-3 M10 (C24)      
1 43582U 18062B   22243.23831506  .00000071  00000+0  00000+0 0  9996
2 43582  54.2577 229.5138 0004941 336.5656 119.8622  1.86232318 27828
BEIDOU-3 M11 (C25)      
1 43602U 18067A   22243.02896834  .00000070  00000+0  00000+0 0  9995
2 43602  54.3408 228.1417 0006726 359.8842 357.4445  1.86231602 27309
BEIDOU-3 M12 (C26)      
1 43603U 18067B   22243.16333991  .00000071  00000+0  00000+0 0  9992
2 43603  54.3386 228.1046 0004164 341.3495  16.4293  1.86231562 27327
BEIDOU-3 M13 (C32)      
1 43622U 18072A   22243.39146868  .00000015  00000+0  00000+0 0  9997
2 43622  55.5209 108.8368 0005490 296.4681 243.3538  1.86231877 26844
BEIDOU-3 M14 (C33)      
1 43623U 18072B   22242.91026292  .00000017  00000+0  00000+0 0  9995
2 43623  55.5227 108.8458 0004096 330.8775 336.5576  1.86231883 26836
BEIDOU-3 M15 (C34)      
1 43647U 18078A   22243.10576759 -.00000079  00000+0  10000-3 0  9991
2 43647  55.0960 348.0363 0005189  10.5304 323.6093  1.86233103 26342
BEIDOU-3 M16 (C35)      
1 43648U 18078B   22243.23927454 -.00000079  00000+0  00000+0 0  9993
2 43648  55.0916 348.0380 0003510  31.0103 300.2795  1.86232312 26367
BEIDOU-3 G1 (C59)       
1 43683U 18085A   22243.54520139 -.00000277  00000+0  00000+0 0  9993
2 43683   0.9695 154.3876 0004609  20.3908 141.1826  1.00267245 14162
BEIDOU-3 M17 (C36)      
1 43706U 18093A   22242.89587684  .00000069  00000+0  00000+0 0  9991
2 43706  54.3415 229.4265 0011186 275.5582  84.2988  1.86231885 25722
BEIDOU-3 M18 (C37)      
1 43707U 18093B   22242.45244005  .00000065  00000+0  00000+0 0  9997
2 43707  54.3410 229.4322 0009478 295.5462 218.2872  1.86232242 25709
BEIDOU-3 IGSO-1 (C38)   
1 44204U 19023A   22243.36393228 -.00000192  00000+0  00000+0 0  9999
2 44204  56.6663  52.1665 0023145 188.1323 349.2936  1.00287481 12464
BEIDOU-2 G8             
1 44231U 19027A   22243.63688472 -.00000244  00000+0  00000+0 0  9999
2 44231   1.0370  78.5118 0005654 115.3083 159.8017  1.00271249 12176
BEIDOU-3 IGSO-2 (C39)   
1 44337U 19035A   22243.13466892 -.00000132  00000+0  00000+0 0  9996
2 44337  55.1241 171.0581 0025807 193.5672 142.5893  1.00281777 11792
BEIDOU-3 M23 (C45)      
1 44542U 19061A   22242.83205846  .00000069  00000+0  00000+0 0  9997
2 44542  54.5679 229.5851 0008787 327.3350  32.5954  1.86231425 19978
BEIDOU-3 M24 (C46)      
1 44543U 19061B   22243.49823640  .00000074  00000+0  00000+0 0  9995
2 44543  54.5640 229.5319 0006468 308.4910  49.4871  1.86231784 19975
BEIDOU-3 IGSO-3         
1 44709U 19073A   22243.53572755 -.00000159  00000+0  10000-3 0  9995
2 44709  57.1420 295.6057 0027588 180.4691 175.9724  1.00286098 10547
BEIDOU-3 M21            
1 44793U 19078A   22242.80105421 -.00000080  00000+0  10000-3 0  9997
2 44793  54.9453 348.0598 0005228  20.8936  62.7213  1.86232337 18837
BEIDOU-3 M22            
1 44794U 19078B   22243.57678656 -.00000080  00000+0  00000+0 0  9993
2 44794  54.9187 348.0229 0003076  16.8228 138.6858  1.86233072 18847
BEIDOU-3 M19            
1 44864U 19090A   22243.31993780  .00000015  00000+0  00000+0 0  9992
2 44864  55.4563 109.0466 0015831 272.7173 264.9918  1.86232008 18423
BEIDOU-3 M20            
1 44865U 19090B   22243.22814691  .00000016  00000+0  00000+0 0  9997
2 44865  55.4583 109.0814 0014056 287.6671 278.3561  1.86231990 18397
BEIDOU-3 G2             
1 45344U 20017A   22243.49945720 -.00000137  00000+0  00000+0 0  9993
2 45344   2.0259 355.7684 0004673 141.5829 102.1148  1.00270366  9368
BEIDOU-3 G3             
1 45807U 20040A   22243.52988188 -.00000352  00000+0  00000+0 0  9991
2 45807   1.2784 305.4878 0006876 335.1177   0.2798  1.00278037  8177
